     3.02           N: GNSS NAV DATA    M: Mixed            RINEX VERSION / TYPE
CHC                 CHC                 20220602 020556 UTC PGM / RUN BY / DATE 
    18                                                      LEAP SECONDS        
                                                            END OF HEADER       
C25 2022  6  2  3  0  0 -7.27927777916D-04  5.48805445533D-12  0.00000000000D+00
      1.00000000000D+00  4.78125000000D+00  4.02766776853D-09  1.54923757955D+00
      2.13272869587D-07  3.90915432945D-04  8.49133357406D-06  5.28261895943D+03
      3.56400000000D+05 -3.21306288242D-08 -2.67111376958D-01 -1.21071934700D-08
      9.49005562714D-01  1.84437500000D+02  3.87167988861D-01 -6.67563520986D-09
     -6.78242537238D-10  0.00000000000D+00  8.56000000000D+02  0.00000000000D+00
      9.65000000000D+00  0.00000000000D+00  2.00000000000D-10  2.00000000000D-10
      8.20465200000D+08  1.00000000000D+00  0.00000000000D+00  0.00000000000D+00
C26 2022  6  2  3  0  0  7.29357823730D-04 -5.35216315711D-12  0.00000000000D+00
      1.00000000000D+00  9.96875000000D+00  4.08767026787D-09  3.10363389101D+00
      3.72994691133D-07  6.97906478308D-04  8.17142426968D-06  5.28261913109D+03
      3.56400000000D+05 -1.39698386192D-09 -2.66530556056D-01 -4.79631125927D-08
      9.49057433400D-01  1.86453125000D+02  3.96979955969D-01 -6.70206488219D-09
     -7.24673042684D-10  0.00000000000D+00  8.56000000000D+02  0.00000000000D+00
      9.65000000000D+00  0.00000000000D+00 -5.40000000000D-09 -5.40000000000D-09
      8.20465200000D+08  1.00000000000D+00  0.00000000000D+00  0.00000000000D+00
C34 2022  6  2  3  0  0 -3.90147091821D-04  8.84448070337D-12  0.00000000000D+00
      1.00000000000D+00  5.35312500000D+01  3.76765693803D-09 -2.06941013615D-01
      2.69478186965D-06  6.46978733130D-04 -2.62167304754D-07  5.28262348366D+03
      3.56400000000D+05 -1.90921127796D-08  1.82634176809D+00  2.88709998131D-08
      9.61796962910D-01  3.66906250000D+02  7.98810627909D-01 -7.12208237760D-09
      1.93936649668D-10  0.00000000000D+00  8.56000000000D+02  0.00000000000D+00
      9.65000000000D+00  0.00000000000D+00 -6.90000000000D-09 -6.90000000000D-09
      8.20465200000D+08  1.00000000000D+00  0.00000000000D+00  0.00000000000D+00
C35 2022  6  2  3  0  0  3.01575753838D-04  1.74713576939D-11  0.00000000000D+00
      1.00000000000D+00  4.54062500000D+01  3.88230457071D-09  1.66868958497D+00
      2.18534842134D-06  7.72646279074D-04 -9.94652509689D-07  5.28261747169D+03
      3.56400000000D+05  1.39698386192D-08  1.82623378572D+00 -4.14438545704D-08
      9.61865415773D-01  3.80078125000D+02  5.31971559985D-01 -7.20137139460D-09
      1.27862468842D-10  0.00000000000D+00  8.56000000000D+02  0.00000000000D+00
      9.65000000000D+00  0.00000000000D+00 -3.30000000000D-09 -3.30000000000D-09
      8.20465200000D+08  1.00000000000D+00  0.00000000000D+00  0.00000000000D+00
C38 2022  6  2  3  0  0  2.32248567045D-07  2.81019651993D-12  0.00000000000D+00
      1.00000000000D+00 -8.00203125000D+02  4.41804117201D-10  2.88647619108D+00
     -2.55461782217D-05  1.84255465865D-03  1.15623697639D-06  6.49367576599D+03
      3.56400000000D+05  8.31671059132D-07  2.90901163949D+00  7.23171979189D-07
      9.87403074901D-01  2.24281250000D+02 -2.87473902085D+00 -1.60042380693D-09
     -2.88583449230D-10  0.00000000000D+00  8.56000000000D+02  0.00000000000D+00
      9.65000000000D+00  0.00000000000D+00  2.00000000000D-09  2.00000000000D-09
      8.20465200000D+08  1.00000000000D+00  0.00000000000D+00  0.00000000000D+00
C40 2022  6  2  3  0  0  2.74025835097D-04  3.17701420727D-12  0.00000000000D+00
      1.00000000000D+00  8.40921875000D+02  3.78587198248D-10 -9.21298305372D-01
      2.71094031632D-05  2.32191209216D-03  1.37519091368D-05  6.49369944382D+03
      3.56400000000D+05 -1.17346644402D-07  8.72841873802D-01 -2.93832272291D-07
      1.00018524555D+00 -1.61468750000D+02  2.97051759437D+00 -1.62363905966D-09
     -2.07151485834D-11  0.00000000000D+00  8.56000000000D+02  0.00000000000D+00
      9.65000000000D+00  0.00000000000D+00  9.00000000000D-10  9.00000000000D-10
      8.20465200000D+08  1.00000000000D+00  0.00000000000D+00  0.00000000000D+00
C44 2022  6  2  3  0  0  6.78963959217D-04  1.22764021171D-11  0.00000000000D+00
      1.00000000000D+00  5.03906250000D+01  3.89337646047D-09  7.70909844061D-01
      2.44844704866D-06  7.94984283857D-04 -7.30622559786D-07  5.28262219810D+03
      3.56400000000D+05 -6.42612576485D-08  1.82664472526D+00 -4.19095158577D-08
      9.59233523744D-01  3.75640625000D+02  6.25401719886D-01 -7.16386983251D-09
      1.37148569931D-10  0.00000000000D+00  8.56000000000D+02  0.00000000000D+00
      9.65000000000D+00  0.00000000000D+00 -2.00000000000D-09 -2.00000000000D-09
      8.20465200000D+08  1.00000000000D+00  0.00000000000D+00  0.00000000000D+00
C59 2022  6  2  3  0  0 -7.05826096237D-07  7.10542735760D-15  0.00000000000D+00
      1.00000000000D+00  5.68671875000D+02  6.64384817152D-09 -1.21376905417D+00
      1.84774398804D-05  3.31498915330D-04  1.10487453640D-05  6.49349598885D+03
      3.56400000000D+05  6.98491930962D-08 -2.16152538286D+00  6.28642737865D-08
      9.68404750288D-02 -3.40171875000D+02  3.92497851465D-01 -5.42665461338D-09
      9.44682206949D-10  0.00000000000D+00  8.56000000000D+02  0.00000000000D+00
      9.65000000000D+00  0.00000000000D+00  4.14000000000D-08  4.14000000000D-08
      8.20465200000D+08  1.00000000000D+00  0.00000000000D+00  0.00000000000D+00
C60 2022  6  2  3  0  0 -8.93021933734D-07 -1.11022302463D-13  0.00000000000D+00
      1.00000000000D+00 -6.75468750000D+01  1.59792370279D-09 -1.44000747283D+00
     -2.13319435716D-06  4.42051212303D-04  2.04797834158D-05  6.49339743805D+03
      3.56400000000D+05  7.26431608200D-08 -2.71158175265D+00  2.84984707832D-07
      7.30268078025D-02 -6.25453125000D+02  1.20569194991D-01 -4.81091467962D-10
      7.66103339851D-10  0.00000000000D+00  8.56000000000D+02  0.00000000000D+00
      9.65000000000D+00  0.00000000000D+00  4.95000000000D-08  4.95000000000D-08
      8.20465200000D+08  1.00000000000D+00  0.00000000000D+00  0.00000000000D+00
G01 2022  6  2  4  0  0  3.50027810782D-04 -8.07176547823D-12  0.00000000000D+00
      9.70000000000D+01 -7.89375000000D+01  3.95230748661D-09  6.01462831261D-01
     -4.22634184361D-06  1.19632990099D-02  2.53319740295D-06  5.15366433144D+03
      3.60000000000D+05 -1.84401869774D-07  2.49384375261D+00  1.28522515297D-07
      9.87895911521D-01  3.46687500000D+02  9.13154028302D-01 -8.13748181592D-09
     -1.74292974288D-10  0.00000000000D+00  2.21200000000D+03  0.00000000000D+00
      4.80000000000D+01  0.00000000000D+00  5.12227416039D-09  9.70000000000D+01
      3.60000000000D+05  0.00000000000D+00  0.00000000000D+00  0.00000000000D+00
G03 2022  6  2  3 59 44 -2.65086535364D-04 -1.26192389871D-11  0.00000000000D+00
      5.00000000000D+00 -9.79062500000D+01  4.08838458334D-09 -5.05748440350D-01
     -4.94532287121D-06  4.23193362076D-03  9.89064574242D-06  5.15362019348D+03
      3.59984000000D+05 -5.58793544769D-09 -2.75582664057D+00  5.02914190292D-08
      9.74245376110D-01  2.00687500000D+02  9.62963814165D-01 -7.70496379981D-09
      3.09655755548D-10  0.00000000000D+00  2.21200000000D+03  0.00000000000D+00
      9.65000000000D+00  0.00000000000D+00  1.86264514923D-09  5.00000000000D+00
      3.59984000000D+05  0.00000000000D+00  0.00000000000D+00  0.00000000000D+00
G04 2022  6  2  2  0  0 -1.61389820278D-04  3.86535248253D-12  0.00000000000D+00
      3.80000000000D+01  7.81250000000D-01  4.87591738724D-09  1.30564761390D+00
      2.36555933952D-07  1.82672718074D-03  6.64778053761D-06  5.15360390282D+03
      3.52800000000D+05  1.19209289551D-07 -1.67445266004D+00 -9.31322574615D-09
      9.60929683630D-01  2.50281250000D+02 -2.96553513385D+00 -8.02712007606D-09
      3.23942064916D-10  0.00000000000D+00  2.21200000000D+03  0.00000000000D+00
      9.65000000000D+00  0.00000000000D+00 -4.65661287308D-09  3.80000000000D+01
      3.52800000000D+05  0.00000000000D+00  0.00000000000D+00  0.00000000000D+00
G07 2022  6  2  4  0  0  3.22148203850D-04 -2.27373675443D-13  0.00000000000D+00
      7.90000000000D+01 -4.71875000000D+00  5.14950021164D-09 -6.10226784338D-02
     -1.62050127983D-07  1.61797303008D-02  6.23799860477D-06  5.15365232277D+03
      3.60000000000D+05 -2.98023223877D-08 -6.56243580574D-01  1.80676579475D-07
      9.50699989042D-01  2.51843750000D+02 -2.26394916374D+00 -8.40713590524D-09
     -5.15021452711D-10  0.00000000000D+00  2.21200000000D+03  0.00000000000D+00
      9.65000000000D+00  0.00000000000D+00 -1.11758708954D-08  7.90000000000D+01
      3.60000000000D+05  0.00000000000D+00  0.00000000000D+00  0.00000000000D+00
G08 2022  6  2  3 59 44 -7.04461708665D-05 -1.59161572810D-12  0.00000000000D+00
      1.10000000000D+01  1.08312500000D+02  4.30196490839D-09  2.77343340386D+00
      5.56558370590D-06  7.43341539055D-03  2.76230275631D-06  5.15377369881D+03
      3.59984000000D+05 -6.14672899246D-08  1.41113505683D+00 -4.09781932831D-08
      9.63306871381D-01  3.28968750000D+02  1.71011887492D-01 -8.11212361680D-09
      1.90722230061D-10  0.00000000000D+00  2.21200000000D+03  0.00000000000D+00
      9.65000000000D+00  0.00000000000D+00  5.12227416039D-09  1.10000000000D+01
      3.59984000000D+05  0.00000000000D+00  0.00000000000D+00  0.00000000000D+00
